ONEWEB-0283             
1 49001U 21060AL  25039.86507302  .00000036  00000+0  61177-4 0  9997
2 49001  87.9130 327.1046 0001710  86.7963 273.3363 13.16596593176026
ONEWEB-0284             
1 49002U 21060AM  25040.23871870  .00000207  00000+0  50848-3 0  9997
2 49002  87.9120 327.0002 0001939  74.6706 285.4639 13.16596419176040
ONEWEB-0285             
1 49075U 21075A   25040.18701723  .00000437  00000+0  11797-2 0  9990
2 49075  87.8827  88.8156 0001946  97.0821 263.0529 13.12445251171521
ONEWEB-0286             
1 49076U 21075B   25039.85354125 -.00000332  00000+0 -95814-3 0  9992
2 49076  87.8825  88.8776 0001706  91.8153 268.3171 13.12444748169856
ONEWEB-0287             
1 49077U 21075C   25039.88529415  .00000047  00000+0  87609-4 0  9997
2 49077  87.9062 104.1453 0001661  87.5944 272.5378 13.17647991168669
ONEWEB-0288             
1 49078U 21075D   25040.14470175 -.00000136  00000+0 -41233-3 0  9990
2 49078  87.8825  88.8223 0001938  92.7330 267.4020 13.12443864171505
ONEWEB-0289             
1 49079U 21075E   25039.91399535  .00000104  00000+0  23560-3 0  9990
2 49079  87.9062 104.1699 0002423  94.0892 266.0516 13.17650272169248
ONEWEB-0290             
1 49080U 21075F   25039.89711380  .00000051  00000+0  98648-4 0  9996
2 49080  87.9060 104.1309 0002623 100.4152 259.7275 13.17650041168658
